2022-023A               
1 51946U 22023A   26066.38437076  .00004303  00000+0  19500-3 0  9999
2 51946  63.4765 256.0240 0098533 341.4326  18.3199 15.18202647222269
STARLINK-34225          
1 64414U 25129C   26068.43186245  .00001672  00000+0  14790-3 0  9992
2 64414  70.0011  75.3047 0003526 266.6625  93.4130 14.98334097 41244
