[{"OBJECT_NAME":"OBJECT A","OBJECT_ID":"2022-023A","EPOCH":"2026-03-07T09:13:29.633664","MEAN_MOTION":15.18202647,"ECCENTRICITY":0.00985337,"INCLINATION":63.4765,"RA_OF_ASC_NODE":256.024,"ARG_OF_PERICENTER":341.4326,"MEAN_ANOMALY":18.3199,"EPHEMERIS_TYPE":0,"CLASSIFICATION_TYPE":"U","NORAD_CAT_ID":51946,"ELEMENT_SET_NO":999,"REV_AT_EPOCH":22226,"BSTAR":0.00019500419,"MEAN_MOTION_DOT":4.303e-5,"MEAN_MOTION_DDOT":0},{"OBJECT_NAME":"STARLINK-34225","OBJECT_ID":"2025-129C","EPOCH":"2026-03-09T10:21:52.915680","MEAN_MOTION":14.98334097,"ECCENTRICITY":0.00035263,"INCLINATION":70.0011,"RA_OF_ASC_NODE":75.3047,"ARG_OF_PERICENTER":266.6625,"MEAN_ANOMALY":93.413,"EPHEMERIS_TYPE":0,"CLASSIFICATION_TYPE":"U","NORAD_CAT_ID":64414,"ELEMENT_SET_NO":999,"REV_AT_EPOCH":4124,"BSTAR":0.00014789839,"MEAN_MOTION_DOT":1.672e-5,"MEAN_MOTION_DDOT":0}]
